GSAT-10 (GAGAN/PRN 128) 
1 38779U 12051B   17345.54581590 -.00000172  00000-0  00000-0 0  9991
2 38779   0.0177 329.3259 0001603 290.6735  99.9878  1.00272383 18944
